{
  "type" : "FeatureCollection",
  "features" : [ {
    "type" : "Feature",
    "properties" : {
      "station_name" : "",
      "child_platform_tags" : [ "ic-结束乐队度假岛方向" ],
      "platform_tag" : "kbzx-结束乐队度假岛方向",
      "railway_direction" : "结束乐队度假岛方向",
      "tag" : "kbzx",
      "railway_name" : "结束乐队专线"
    },
    "geometry" : {
      "type" : "Point",
      "coordinates" : [ 5669.0, -4541.0, 88.0 ]
    }
  }, {
    "type" : "Feature",
    "properties" : {
      "end_platform_tag" : "ic-结束乐队度假岛方向",
      "distance" : 875,
      "line_type" : "main_line_second",
      "end_station_name" : "冰克洛站",
      "end_railway_direction" : "结束乐队度假岛方向",
      "end_railway_name" : "结束乐队专线",
      "end_tag" : "ic",
      "line_color" : "#aa0000"
    },
    "geometry" : {
      "type" : "LineString",
      "coordinates" : [ [ 5669.0, -4541.0, 88.0 ], [ 5669.0, -4387.0, 91.0 ], [ 5670.0, -4387.0, 91.0 ], [ 5670.0, -4382.0, 91.0 ], [ 5671.0, -4382.0, 91.0 ], [ 5671.0, -4377.0, 91.0 ], [ 5672.0, -4377.0, 91.0 ], [ 5672.0, -4374.0, 91.0 ], [ 5673.0, -4374.0, 91.0 ], [ 5673.0, -4371.0, 91.0 ], [ 5674.0, -4371.0, 91.0 ], [ 5674.0, -4368.0, 91.0 ], [ 5675.0, -4368.0, 91.0 ], [ 5675.0, -4366.0, 91.0 ], [ 5676.0, -4366.0, 91.0 ], [ 5676.0, -4363.0, 91.0 ], [ 5677.0, -4363.0, 91.0 ], [ 5677.0, -4361.0, 91.0 ], [ 5678.0, -4361.0, 91.0 ], [ 5678.0, -4359.0, 91.0 ], [ 5679.0, -4359.0, 91.0 ], [ 5679.0, -4357.0, 91.0 ], [ 5680.0, -4357.0, 91.0 ], [ 5680.0, -4356.0, 91.0 ], [ 5681.0, -4356.0, 91.0 ], [ 5681.0, -4354.0, 91.0 ], [ 5682.0, -4354.0, 91.0 ], [ 5682.0, -4352.0, 91.0 ], [ 5683.0, -4352.0, 91.0 ], [ 5683.0, -4351.0, 91.0 ], [ 5684.0, -4351.0, 91.0 ], [ 5684.0, -4349.0, 91.0 ], [ 5685.0, -4349.0, 91.0 ], [ 5685.0, -4348.0, 91.0 ], [ 5686.0, -4348.0, 91.0 ], [ 5686.0, -4347.0, 91.0 ], [ 5687.0, -4347.0, 91.0 ], [ 5687.0, -4345.0, 91.0 ], [ 5688.0, -4345.0, 91.0 ], [ 5688.0, -4344.0, 91.0 ], [ 5689.0, -4344.0, 91.0 ], [ 5689.0, -4343.0, 91.0 ], [ 5690.0, -4343.0, 91.0 ], [ 5690.0, -4342.0, 91.0 ], [ 5691.0, -4342.0, 91.0 ], [ 5691.0, -4340.0, 91.0 ], [ 5692.0, -4340.0, 91.0 ], [ 5692.0, -4339.0, 91.0 ], [ 5693.0, -4339.0, 91.0 ], [ 5693.0, -4338.0, 91.0 ], [ 5694.0, -4338.0, 91.0 ], [ 5694.0, -4337.0, 91.0 ], [ 5695.0, -4337.0, 91.0 ], [ 5695.0, -4336.0, 91.0 ], [ 5696.0, -4336.0, 91.0 ], [ 5696.0, -4335.0, 91.0 ], [ 5697.0, -4335.0, 91.0 ], [ 5697.0, -4334.0, 91.0 ], [ 5698.0, -4334.0, 91.0 ], [ 5698.0, -4333.0, 91.0 ], [ 5700.0, -4333.0, 91.0 ], [ 5700.0, -4332.0, 91.0 ], [ 5701.0, -4332.0, 91.0 ], [ 5701.0, -4331.0, 91.0 ], [ 5702.0, -4331.0, 91.0 ], [ 5702.0, -4330.0, 91.0 ], [ 5703.0, -4330.0, 91.0 ], [ 5703.0, -4329.0, 91.0 ], [ 5705.0, -4329.0, 91.0 ], [ 5705.0, -4328.0, 91.0 ], [ 5706.0, -4328.0, 91.0 ], [ 5706.0, -4327.0, 91.0 ], [ 5707.0, -4327.0, 91.0 ], [ 5707.0, -4326.0, 91.0 ], [ 5709.0, -4326.0, 91.0 ], [ 5709.0, -4325.0, 91.0 ], [ 5710.0, -4325.0, 91.0 ], [ 5710.0, -4324.0, 91.0 ], [ 5712.0, -4324.0, 91.0 ], [ 5712.0, -4323.0, 91.0 ], [ 5714.0, -4323.0, 91.0 ], [ 5714.0, -4322.0, 91.0 ], [ 5715.0, -4322.0, 91.0 ], [ 5715.0, -4321.0, 91.0 ], [ 5717.0, -4321.0, 91.0 ], [ 5717.0, -4320.0, 91.0 ], [ 5719.0, -4320.0, 91.0 ], [ 5719.0, -4319.0, 91.0 ], [ 5721.0, -4319.0, 91.0 ], [ 5721.0, -4318.0, 91.0 ], [ 5724.0, -4318.0, 91.0 ], [ 5724.0, -4317.0, 91.0 ], [ 5726.0, -4317.0, 91.0 ], [ 5726.0, -4316.0, 91.0 ], [ 5729.0, -4316.0, 91.0 ], [ 5729.0, -4315.0, 91.0 ], [ 5732.0, -4315.0, 91.0 ], [ 5732.0, -4314.0, 91.0 ], [ 5735.0, -4314.0, 91.0 ], [ 5735.0, -4313.0, 91.0 ], [ 5740.0, -4313.0, 91.0 ], [ 5740.0, -4312.0, 91.0 ], [ 5745.0, -4312.0, 91.0 ], [ 5745.0, -4311.0, 91.0 ], [ 5883.0, -4311.0, 88.0 ], [ 5883.0, -4310.0, 88.0 ], [ 5890.0, -4310.0, 88.0 ], [ 5890.0, -4309.0, 88.0 ], [ 5895.0, -4309.0, 88.0 ], [ 5895.0, -4308.0, 88.0 ], [ 5899.0, -4308.0, 88.0 ], [ 5899.0, -4307.0, 88.0 ], [ 5902.0, -4307.0, 88.0 ], [ 5902.0, -4306.0, 88.0 ], [ 5905.0, -4306.0, 88.0 ], [ 5905.0, -4305.0, 88.0 ], [ 5908.0, -4305.0, 88.0 ], [ 5908.0, -4304.0, 88.0 ], [ 5911.0, -4304.0, 88.0 ], [ 5911.0, -4303.0, 88.0 ], [ 5913.0, -4303.0, 88.0 ], [ 5913.0, -4302.0, 88.0 ], [ 5915.0, -4302.0, 88.0 ], [ 5915.0, -4301.0, 88.0 ], [ 5917.0, -4301.0, 88.0 ], [ 5917.0, -4300.0, 88.0 ], [ 5919.0, -4300.0, 88.0 ], [ 5919.0, -4299.0, 88.0 ], [ 5921.0, -4299.0, 88.0 ], [ 5921.0, -4298.0, 88.0 ], [ 5923.0, -4298.0, 88.0 ], [ 5923.0, -4297.0, 88.0 ], [ 5925.0, -4297.0, 88.0 ], [ 5925.0, -4296.0, 88.0 ], [ 5926.0, -4296.0, 88.0 ], [ 5926.0, -4295.0, 88.0 ], [ 5928.0, -4295.0, 88.0 ], [ 5928.0, -4294.0, 88.0 ], [ 5929.0, -4294.0, 88.0 ], [ 5929.0, -4293.0, 88.0 ], [ 5931.0, -4293.0, 88.0 ], [ 5931.0, -4292.0, 88.0 ], [ 5932.0, -4292.0, 88.0 ], [ 5932.0, -4291.0, 88.0 ], [ 5933.0, -4291.0, 88.0 ], [ 5933.0, -4290.0, 88.0 ], [ 5935.0, -4290.0, 88.0 ], [ 5935.0, -4289.0, 88.0 ], [ 5936.0, -4289.0, 88.0 ], [ 5936.0, -4288.0, 88.0 ], [ 5937.0, -4288.0, 88.0 ], [ 5937.0, -4287.0, 88.0 ], [ 5938.0, -4287.0, 88.0 ], [ 5938.0, -4286.0, 88.0 ], [ 5939.0, -4286.0, 88.0 ], [ 5939.0, -4285.0, 88.0 ], [ 5940.0, -4285.0, 88.0 ], [ 5940.0, -4284.0, 88.0 ], [ 5941.0, -4284.0, 88.0 ], [ 5941.0, -4283.0, 88.0 ], [ 5942.0, -4283.0, 88.0 ], [ 5942.0, -4282.0, 88.0 ], [ 5943.0, -4282.0, 88.0 ], [ 5943.0, -4281.0, 88.0 ], [ 5944.0, -4281.0, 88.0 ], [ 5944.0, -4280.0, 88.0 ], [ 5945.0, -4280.0, 88.0 ], [ 5945.0, -4279.0, 88.0 ], [ 5946.0, -4279.0, 88.0 ], [ 5946.0, -4277.0, 88.0 ], [ 5947.0, -4277.0, 88.0 ], [ 5947.0, -4276.0, 88.0 ], [ 5948.0, -4276.0, 88.0 ], [ 5948.0, -4275.0, 88.0 ], [ 5949.0, -4275.0, 88.0 ], [ 5949.0, -4274.0, 88.0 ], [ 5950.0, -4274.0, 88.0 ], [ 5950.0, -4273.0, 88.0 ], [ 5951.0, -4273.0, 88.0 ], [ 5951.0, -4271.0, 88.0 ], [ 5952.0, -4271.0, 88.0 ], [ 5952.0, -4270.0, 88.0 ], [ 5953.0, -4270.0, 88.0 ], [ 5953.0, -4269.0, 88.0 ], [ 5954.0, -4269.0, 88.0 ], [ 5954.0, -4267.0, 88.0 ], [ 5955.0, -4267.0, 88.0 ], [ 5955.0, -4266.0, 88.0 ], [ 5956.0, -4266.0, 88.0 ], [ 5956.0, -4264.0, 88.0 ], [ 5957.0, -4264.0, 88.0 ], [ 5957.0, -4263.0, 88.0 ], [ 5958.0, -4263.0, 88.0 ], [ 5958.0, -4261.0, 88.0 ], [ 5959.0, -4261.0, 88.0 ], [ 5959.0, -4259.0, 88.0 ], [ 5960.0, -4259.0, 88.0 ], [ 5960.0, -4257.0, 88.0 ], [ 5961.0, -4257.0, 88.0 ], [ 5961.0, -4255.0, 88.0 ], [ 5962.0, -4255.0, 88.0 ], [ 5962.0, -4253.0, 88.0 ], [ 5963.0, -4253.0, 88.0 ], [ 5963.0, -4251.0, 88.0 ], [ 5964.0, -4251.0, 88.0 ], [ 5964.0, -4249.0, 88.0 ], [ 5965.0, -4249.0, 88.0 ], [ 5965.0, -4246.0, 88.0 ], [ 5966.0, -4246.0, 88.0 ], [ 5966.0, -4243.0, 88.0 ], [ 5967.0, -4243.0, 88.0 ], [ 5967.0, -4240.0, 88.0 ], [ 5968.0, -4240.0, 88.0 ], [ 5968.0, -4237.0, 88.0 ], [ 5969.0, -4237.0, 88.0 ], [ 5969.0, -4233.0, 88.0 ], [ 5970.0, -4233.0, 88.0 ], [ 5970.0, -4228.0, 88.0 ], [ 5971.0, -4228.0, 88.0 ], [ 5971.0, -4221.0, 88.0 ], [ 5972.0, -4221.0, 88.0 ], [ 5972.0, -3969.0, 81.0 ] ]
    }
  } ]
}