{
  "type" : "FeatureCollection",
  "features" : [ {
    "type" : "Feature",
    "properties" : {
      "station_name" : "结束乐队度假岛站",
      "child_platform_tags" : [ "ic-结束乐队开发区方向" ],
      "platform_tag" : "kri-结束乐队开发区方向",
      "railway_direction" : "结束乐队开发区方向",
      "tag" : "kri",
      "railway_name" : "结束乐队专线"
    },
    "geometry" : {
      "type" : "Point",
      "coordinates" : [ 5627.0, -3158.0, 74.0 ]
    }
  }, {
    "type" : "Feature",
    "properties" : {
      "distance" : 0,
      "line_type" : "main_line_first",
      "line_color" : "#aa0000"
    },
    "geometry" : {
      "type" : "LineString",
      "coordinates" : [ ]
    }
  }, {
    "type" : "Feature",
    "properties" : {
      "end_platform_tag" : "ic-结束乐队开发区方向",
      "distance" : 1111,
      "line_type" : "main_line_second",
      "end_station_name" : "冰克洛站",
      "end_railway_direction" : "结束乐队开发区方向",
      "end_railway_name" : "结束乐队专线",
      "end_tag" : "ic",
      "line_color" : "#aa0000"
    },
    "geometry" : {
      "type" : "LineString",
      "coordinates" : [ [ 5627.0, -3158.0, 74.0 ], [ 5652.0, -3158.0, 74.0 ], [ 5652.0, -3157.0, 74.0 ], [ 5653.0, -3157.0, 74.0 ], [ 5653.0, -3156.0, 74.0 ], [ 5654.0, -3156.0, 74.0 ], [ 5654.0, -3155.0, 74.0 ], [ 5655.0, -3155.0, 74.0 ], [ 5655.0, -3154.0, 74.0 ], [ 5878.0, -3154.0, 74.0 ], [ 5878.0, -3155.0, 74.0 ], [ 5885.0, -3155.0, 74.0 ], [ 5885.0, -3156.0, 74.0 ], [ 5890.0, -3156.0, 74.0 ], [ 5890.0, -3157.0, 74.0 ], [ 5894.0, -3157.0, 74.0 ], [ 5894.0, -3158.0, 74.0 ], [ 5897.0, -3158.0, 74.0 ], [ 5897.0, -3159.0, 74.0 ], [ 5900.0, -3159.0, 74.0 ], [ 5900.0, -3160.0, 74.0 ], [ 5903.0, -3160.0, 74.0 ], [ 5903.0, -3161.0, 74.0 ], [ 5906.0, -3161.0, 74.0 ], [ 5906.0, -3162.0, 74.0 ], [ 5908.0, -3162.0, 74.0 ], [ 5908.0, -3163.0, 74.0 ], [ 5910.0, -3163.0, 74.0 ], [ 5910.0, -3164.0, 74.0 ], [ 5912.0, -3164.0, 74.0 ], [ 5912.0, -3165.0, 74.0 ], [ 5914.0, -3165.0, 74.0 ], [ 5914.0, -3166.0, 74.0 ], [ 5916.0, -3166.0, 74.0 ], [ 5916.0, -3167.0, 74.0 ], [ 5918.0, -3167.0, 74.0 ], [ 5918.0, -3168.0, 74.0 ], [ 5920.0, -3168.0, 74.0 ], [ 5920.0, -3169.0, 74.0 ], [ 5921.0, -3169.0, 74.0 ], [ 5921.0, -3170.0, 74.0 ], [ 5923.0, -3170.0, 74.0 ], [ 5923.0, -3171.0, 74.0 ], [ 5924.0, -3171.0, 74.0 ], [ 5924.0, -3172.0, 74.0 ], [ 5926.0, -3172.0, 74.0 ], [ 5926.0, -3173.0, 74.0 ], [ 5927.0, -3173.0, 74.0 ], [ 5927.0, -3174.0, 74.0 ], [ 5928.0, -3174.0, 74.0 ], [ 5928.0, -3175.0, 74.0 ], [ 5930.0, -3175.0, 74.0 ], [ 5930.0, -3176.0, 74.0 ], [ 5931.0, -3176.0, 74.0 ], [ 5931.0, -3177.0, 74.0 ], [ 5932.0, -3177.0, 74.0 ], [ 5932.0, -3178.0, 74.0 ], [ 5933.0, -3178.0, 74.0 ], [ 5933.0, -3179.0, 74.0 ], [ 5934.0, -3179.0, 74.0 ], [ 5934.0, -3180.0, 74.0 ], [ 5936.0, -3180.0, 74.0 ], [ 5936.0, -3181.0, 74.0 ], [ 5937.0, -3181.0, 74.0 ], [ 5937.0, -3182.0, 74.0 ], [ 5938.0, -3182.0, 74.0 ], [ 5938.0, -3183.0, 74.0 ], [ 5939.0, -3183.0, 74.0 ], [ 5939.0, -3184.0, 74.0 ], [ 5940.0, -3184.0, 74.0 ], [ 5940.0, -3185.0, 74.0 ], [ 5941.0, -3185.0, 74.0 ], [ 5941.0, -3186.0, 74.0 ], [ 5942.0, -3186.0, 74.0 ], [ 5942.0, -3187.0, 74.0 ], [ 5943.0, -3187.0, 74.0 ], [ 5943.0, -3188.0, 74.0 ], [ 5944.0, -3188.0, 74.0 ], [ 5944.0, -3189.0, 74.0 ], [ 5945.0, -3189.0, 74.0 ], [ 5945.0, -3190.0, 74.0 ], [ 5946.0, -3190.0, 74.0 ], [ 5946.0, -3191.0, 74.0 ], [ 5947.0, -3191.0, 74.0 ], [ 5947.0, -3193.0, 74.0 ], [ 5948.0, -3193.0, 74.0 ], [ 5948.0, -3194.0, 74.0 ], [ 5949.0, -3194.0, 74.0 ], [ 5949.0, -3195.0, 74.0 ], [ 5950.0, -3195.0, 74.0 ], [ 5950.0, -3197.0, 74.0 ], [ 5951.0, -3197.0, 74.0 ], [ 5951.0, -3198.0, 74.0 ], [ 5952.0, -3198.0, 74.0 ], [ 5952.0, -3200.0, 74.0 ], [ 5953.0, -3200.0, 74.0 ], [ 5953.0, -3201.0, 74.0 ], [ 5954.0, -3201.0, 74.0 ], [ 5954.0, -3203.0, 74.0 ], [ 5955.0, -3203.0, 74.0 ], [ 5955.0, -3205.0, 74.0 ], [ 5956.0, -3205.0, 74.0 ], [ 5956.0, -3207.0, 74.0 ], [ 5957.0, -3207.0, 74.0 ], [ 5957.0, -3209.0, 74.0 ], [ 5958.0, -3209.0, 74.0 ], [ 5958.0, -3211.0, 74.0 ], [ 5959.0, -3211.0, 74.0 ], [ 5959.0, -3213.0, 74.0 ], [ 5960.0, -3213.0, 74.0 ], [ 5960.0, -3215.0, 74.0 ], [ 5961.0, -3215.0, 74.0 ], [ 5961.0, -3218.0, 74.0 ], [ 5962.0, -3218.0, 74.0 ], [ 5962.0, -3221.0, 74.0 ], [ 5963.0, -3221.0, 74.0 ], [ 5963.0, -3224.0, 74.0 ], [ 5964.0, -3224.0, 74.0 ], [ 5964.0, -3227.0, 74.0 ], [ 5965.0, -3227.0, 74.0 ], [ 5965.0, -3231.0, 74.0 ], [ 5966.0, -3231.0, 74.0 ], [ 5966.0, -3236.0, 74.0 ], [ 5967.0, -3236.0, 74.0 ], [ 5967.0, -3243.0, 74.0 ], [ 5968.0, -3243.0, 74.0 ], [ 5968.0, -3920.0, 81.0 ] ]
    }
  } ]
}