{
  "type" : "FeatureCollection",
  "features" : [ {
    "type" : "Feature",
    "properties" : {
      "station_name" : "醍醐镇站",
      "child_platform_tags" : [ "sb3-匕首半岛方向" ],
      "platform_tag" : "tht-匕首半岛方向",
      "railway_direction" : "匕首半岛方向",
      "tag" : "tht",
      "railway_name" : "普蒙铁路"
    },
    "geometry" : {
      "type" : "Point",
      "coordinates" : [ 8643.0, -4757.0, 80.0 ]
    }
  }, {
    "type" : "Feature",
    "properties" : {
      "distance" : 45,
      "line_type" : "line_in",
      "line_color" : "#ff55ff"
    },
    "geometry" : {
      "type" : "LineString",
      "coordinates" : [ [ 8684.0, -4761.0, 80.0 ], [ 8684.0, -4760.0, 80.0 ], [ 8683.0, -4760.0, 80.0 ], [ 8683.0, -4759.0, 80.0 ], [ 8682.0, -4759.0, 80.0 ], [ 8682.0, -4758.0, 80.0 ], [ 8681.0, -4758.0, 80.0 ], [ 8681.0, -4757.0, 80.0 ], [ 8643.0, -4757.0, 80.0 ] ]
    }
  }, {
    "type" : "Feature",
    "properties" : {
      "distance" : 46,
      "line_type" : "line_out",
      "line_color" : "#ff55ff"
    },
    "geometry" : {
      "type" : "LineString",
      "coordinates" : [ [ 8643.0, -4757.0, 80.0 ], [ 8605.0, -4757.0, 80.0 ], [ 8605.0, -4758.0, 80.0 ], [ 8604.0, -4758.0, 80.0 ], [ 8604.0, -4759.0, 80.0 ], [ 8603.0, -4759.0, 80.0 ], [ 8603.0, -4760.0, 80.0 ], [ 8602.0, -4760.0, 80.0 ], [ 8602.0, -4761.0, 80.0 ] ]
    }
  }, {
    "type" : "Feature",
    "properties" : {
      "distance" : 82,
      "line_type" : "main_line_first",
      "line_color" : "#ff55ff"
    },
    "geometry" : {
      "type" : "LineString",
      "coordinates" : [ [ 8684.0, -4761.0, 80.0 ], [ 8602.0, -4761.0, 80.0 ] ]
    }
  }, {
    "type" : "Feature",
    "properties" : {
      "end_platform_tag" : "sb3-匕首半岛方向",
      "distance" : 1854,
      "line_type" : "main_line_second",
      "end_station_name" : "春风平原站",
      "end_railway_direction" : "匕首半岛方向",
      "end_railway_name" : "普蒙铁路",
      "end_tag" : "sb3",
      "line_color" : "#ff55ff"
    },
    "geometry" : {
      "type" : "LineString",
      "coordinates" : [ [ 8602.0, -4761.0, 80.0 ], [ 8207.0, -4761.0, 71.0 ], [ 8207.0, -4760.0, 71.0 ], [ 8202.0, -4760.0, 71.0 ], [ 8202.0, -4759.0, 71.0 ], [ 8197.0, -4759.0, 71.0 ], [ 8197.0, -4758.0, 71.0 ], [ 8194.0, -4758.0, 71.0 ], [ 8194.0, -4757.0, 71.0 ], [ 8191.0, -4757.0, 71.0 ], [ 8191.0, -4756.0, 71.0 ], [ 8188.0, -4756.0, 71.0 ], [ 8188.0, -4755.0, 71.0 ], [ 8186.0, -4755.0, 71.0 ], [ 8186.0, -4754.0, 71.0 ], [ 8183.0, -4754.0, 71.0 ], [ 8183.0, -4753.0, 71.0 ], [ 8181.0, -4753.0, 71.0 ], [ 8181.0, -4752.0, 71.0 ], [ 8179.0, -4752.0, 71.0 ], [ 8179.0, -4751.0, 71.0 ], [ 8177.0, -4751.0, 71.0 ], [ 8177.0, -4750.0, 71.0 ], [ 8176.0, -4750.0, 71.0 ], [ 8176.0, -4749.0, 71.0 ], [ 8174.0, -4749.0, 71.0 ], [ 8174.0, -4748.0, 71.0 ], [ 8172.0, -4748.0, 71.0 ], [ 8172.0, -4747.0, 71.0 ], [ 8171.0, -4747.0, 71.0 ], [ 8171.0, -4746.0, 71.0 ], [ 8169.0, -4746.0, 71.0 ], [ 8169.0, -4745.0, 71.0 ], [ 8168.0, -4745.0, 71.0 ], [ 8168.0, -4744.0, 71.0 ], [ 8167.0, -4744.0, 71.0 ], [ 8167.0, -4743.0, 71.0 ], [ 8165.0, -4743.0, 71.0 ], [ 8165.0, -4742.0, 71.0 ], [ 8164.0, -4742.0, 71.0 ], [ 8164.0, -4741.0, 71.0 ], [ 8163.0, -4741.0, 71.0 ], [ 8163.0, -4740.0, 71.0 ], [ 8162.0, -4740.0, 71.0 ], [ 8162.0, -4739.0, 71.0 ], [ 8160.0, -4739.0, 71.0 ], [ 8160.0, -4738.0, 71.0 ], [ 8159.0, -4738.0, 71.0 ], [ 8159.0, -4737.0, 71.0 ], [ 8158.0, -4737.0, 71.0 ], [ 8158.0, -4736.0, 71.0 ], [ 8157.0, -4736.0, 71.0 ], [ 8157.0, -4735.0, 71.0 ], [ 8156.0, -4735.0, 71.0 ], [ 8156.0, -4734.0, 71.0 ], [ 8155.0, -4734.0, 71.0 ], [ 8155.0, -4733.0, 71.0 ], [ 8154.0, -4733.0, 71.0 ], [ 8154.0, -4732.0, 71.0 ], [ 8153.0, -4732.0, 71.0 ], [ 8153.0, -4730.0, 71.0 ], [ 8152.0, -4730.0, 71.0 ], [ 8152.0, -4729.0, 71.0 ], [ 8151.0, -4729.0, 71.0 ], [ 8151.0, -4728.0, 71.0 ], [ 8150.0, -4728.0, 71.0 ], [ 8150.0, -4727.0, 71.0 ], [ 8149.0, -4727.0, 71.0 ], [ 8149.0, -4725.0, 71.0 ], [ 8148.0, -4725.0, 71.0 ], [ 8148.0, -4724.0, 71.0 ], [ 8147.0, -4724.0, 71.0 ], [ 8147.0, -4723.0, 71.0 ], [ 8146.0, -4723.0, 71.0 ], [ 8146.0, -4721.0, 71.0 ], [ 8145.0, -4721.0, 71.0 ], [ 8145.0, -4720.0, 71.0 ], [ 8144.0, -4720.0, 71.0 ], [ 8144.0, -4718.0, 71.0 ], [ 8143.0, -4718.0, 71.0 ], [ 8143.0, -4716.0, 71.0 ], [ 8142.0, -4716.0, 71.0 ], [ 8142.0, -4715.0, 71.0 ], [ 8141.0, -4715.0, 71.0 ], [ 8141.0, -4713.0, 71.0 ], [ 8140.0, -4713.0, 71.0 ], [ 8140.0, -4711.0, 71.0 ], [ 8139.0, -4711.0, 71.0 ], [ 8139.0, -4709.0, 71.0 ], [ 8138.0, -4709.0, 71.0 ], [ 8138.0, -4706.0, 71.0 ], [ 8137.0, -4706.0, 71.0 ], [ 8137.0, -4704.0, 71.0 ], [ 8136.0, -4704.0, 71.0 ], [ 8136.0, -4701.0, 71.0 ], [ 8135.0, -4701.0, 71.0 ], [ 8135.0, -4698.0, 71.0 ], [ 8134.0, -4698.0, 71.0 ], [ 8134.0, -4695.0, 71.0 ], [ 8133.0, -4695.0, 71.0 ], [ 8133.0, -4690.0, 71.0 ], [ 8132.0, -4690.0, 71.0 ], [ 8132.0, -4685.0, 71.0 ], [ 8131.0, -4685.0, 71.0 ], [ 8131.0, -4243.0, 57.0 ], [ 8130.0, -4243.0, 57.0 ], [ 8130.0, -4238.0, 57.0 ], [ 8129.0, -4238.0, 57.0 ], [ 8129.0, -4233.0, 57.0 ], [ 8128.0, -4233.0, 57.0 ], [ 8128.0, -4230.0, 57.0 ], [ 8127.0, -4230.0, 57.0 ], [ 8127.0, -4227.0, 57.0 ], [ 8126.0, -4227.0, 57.0 ], [ 8126.0, -4224.0, 57.0 ], [ 8125.0, -4224.0, 57.0 ], [ 8125.0, -4222.0, 57.0 ], [ 8124.0, -4222.0, 57.0 ], [ 8124.0, -4219.0, 57.0 ], [ 8123.0, -4219.0, 57.0 ], [ 8123.0, -4217.0, 57.0 ], [ 8122.0, -4217.0, 57.0 ], [ 8122.0, -4215.0, 57.0 ], [ 8121.0, -4215.0, 57.0 ], [ 8121.0, -4213.0, 57.0 ], [ 8120.0, -4213.0, 57.0 ], [ 8120.0, -4212.0, 57.0 ], [ 8119.0, -4212.0, 57.0 ], [ 8119.0, -4210.0, 57.0 ], [ 8118.0, -4210.0, 57.0 ], [ 8118.0, -4208.0, 57.0 ], [ 8117.0, -4208.0, 57.0 ], [ 8117.0, -4207.0, 57.0 ], [ 8116.0, -4207.0, 57.0 ], [ 8116.0, -4205.0, 57.0 ], [ 8115.0, -4205.0, 57.0 ], [ 8115.0, -4204.0, 57.0 ], [ 8114.0, -4204.0, 57.0 ], [ 8114.0, -4203.0, 57.0 ], [ 8113.0, -4203.0, 57.0 ], [ 8113.0, -4201.0, 57.0 ], [ 8112.0, -4201.0, 57.0 ], [ 8112.0, -4200.0, 57.0 ], [ 8111.0, -4200.0, 57.0 ], [ 8111.0, -4199.0, 57.0 ], [ 8110.0, -4199.0, 57.0 ], [ 8110.0, -4198.0, 57.0 ], [ 8109.0, -4198.0, 57.0 ], [ 8109.0, -4196.0, 57.0 ], [ 8108.0, -4196.0, 57.0 ], [ 8108.0, -4195.0, 57.0 ], [ 8107.0, -4195.0, 57.0 ], [ 8107.0, -4194.0, 57.0 ], [ 8106.0, -4194.0, 57.0 ], [ 8106.0, -4193.0, 57.0 ], [ 8105.0, -4193.0, 57.0 ], [ 8105.0, -4192.0, 57.0 ], [ 8104.0, -4192.0, 57.0 ], [ 8104.0, -4191.0, 57.0 ], [ 8103.0, -4191.0, 57.0 ], [ 8103.0, -4190.0, 57.0 ], [ 8102.0, -4190.0, 57.0 ], [ 8102.0, -4189.0, 57.0 ], [ 8100.0, -4189.0, 57.0 ], [ 8100.0, -4188.0, 57.0 ], [ 8099.0, -4188.0, 57.0 ], [ 8099.0, -4187.0, 57.0 ], [ 8098.0, -4187.0, 57.0 ], [ 8098.0, -4186.0, 57.0 ], [ 8097.0, -4186.0, 57.0 ], [ 8097.0, -4185.0, 57.0 ], [ 8095.0, -4185.0, 57.0 ], [ 8095.0, -4184.0, 57.0 ], [ 8094.0, -4184.0, 57.0 ], [ 8094.0, -4183.0, 57.0 ], [ 8093.0, -4183.0, 57.0 ], [ 8093.0, -4182.0, 57.0 ], [ 8091.0, -4182.0, 57.0 ], [ 8091.0, -4181.0, 57.0 ], [ 8090.0, -4181.0, 57.0 ], [ 8090.0, -4180.0, 57.0 ], [ 8088.0, -4180.0, 57.0 ], [ 8088.0, -4179.0, 57.0 ], [ 8086.0, -4179.0, 57.0 ], [ 8086.0, -4178.0, 57.0 ], [ 8085.0, -4178.0, 57.0 ], [ 8085.0, -4177.0, 57.0 ], [ 8083.0, -4177.0, 57.0 ], [ 8083.0, -4176.0, 57.0 ], [ 8081.0, -4176.0, 57.0 ], [ 8081.0, -4175.0, 57.0 ], [ 8079.0, -4175.0, 57.0 ], [ 8079.0, -4174.0, 57.0 ], [ 8076.0, -4174.0, 57.0 ], [ 8076.0, -4173.0, 57.0 ], [ 8074.0, -4173.0, 57.0 ], [ 8074.0, -4172.0, 57.0 ], [ 8071.0, -4172.0, 57.0 ], [ 8071.0, -4171.0, 57.0 ], [ 8068.0, -4171.0, 57.0 ], [ 8068.0, -4170.0, 57.0 ], [ 8065.0, -4170.0, 57.0 ], [ 8065.0, -4169.0, 57.0 ], [ 8060.0, -4169.0, 57.0 ], [ 8060.0, -4168.0, 57.0 ], [ 8055.0, -4168.0, 57.0 ], [ 8055.0, -4167.0, 57.0 ], [ 7661.0, -4167.0, 51.0 ], [ 7661.0, -4166.0, 51.0 ], [ 7656.0, -4166.0, 51.0 ], [ 7656.0, -4165.0, 51.0 ], [ 7651.0, -4165.0, 51.0 ], [ 7651.0, -4164.0, 51.0 ], [ 7648.0, -4164.0, 51.0 ], [ 7648.0, -4163.0, 51.0 ], [ 7645.0, -4163.0, 51.0 ], [ 7645.0, -4162.0, 51.0 ], [ 7642.0, -4162.0, 51.0 ], [ 7642.0, -4161.0, 51.0 ], [ 7640.0, -4161.0, 51.0 ], [ 7640.0, -4160.0, 51.0 ], [ 7637.0, -4160.0, 51.0 ], [ 7637.0, -4159.0, 51.0 ], [ 7635.0, -4159.0, 51.0 ], [ 7635.0, -4158.0, 51.0 ], [ 7633.0, -4158.0, 51.0 ], [ 7633.0, -4157.0, 51.0 ], [ 7631.0, -4157.0, 51.0 ], [ 7631.0, -4156.0, 51.0 ], [ 7630.0, -4156.0, 51.0 ], [ 7630.0, -4155.0, 51.0 ], [ 7628.0, -4155.0, 51.0 ], [ 7628.0, -4154.0, 51.0 ], [ 7626.0, -4154.0, 51.0 ], [ 7626.0, -4153.0, 51.0 ], [ 7625.0, -4153.0, 51.0 ], [ 7625.0, -4152.0, 51.0 ], [ 7623.0, -4152.0, 51.0 ], [ 7623.0, -4151.0, 51.0 ], [ 7622.0, -4151.0, 51.0 ], [ 7622.0, -4150.0, 51.0 ], [ 7621.0, -4150.0, 51.0 ], [ 7621.0, -4149.0, 51.0 ], [ 7619.0, -4149.0, 51.0 ], [ 7619.0, -4148.0, 51.0 ], [ 7618.0, -4148.0, 51.0 ], [ 7618.0, -4147.0, 51.0 ], [ 7617.0, -4147.0, 51.0 ], [ 7617.0, -4146.0, 51.0 ], [ 7616.0, -4146.0, 51.0 ], [ 7616.0, -4145.0, 51.0 ], [ 7614.0, -4145.0, 51.0 ], [ 7614.0, -4144.0, 51.0 ], [ 7613.0, -4144.0, 51.0 ], [ 7613.0, -4143.0, 51.0 ], [ 7612.0, -4143.0, 51.0 ], [ 7612.0, -4142.0, 51.0 ], [ 7611.0, -4142.0, 51.0 ], [ 7611.0, -4141.0, 51.0 ], [ 7610.0, -4141.0, 51.0 ], [ 7610.0, -4140.0, 51.0 ], [ 7609.0, -4140.0, 51.0 ], [ 7609.0, -4139.0, 51.0 ], [ 7608.0, -4139.0, 51.0 ], [ 7608.0, -4138.0, 51.0 ], [ 7607.0, -4138.0, 51.0 ], [ 7607.0, -4136.0, 51.0 ], [ 7606.0, -4136.0, 51.0 ], [ 7606.0, -4135.0, 51.0 ], [ 7605.0, -4135.0, 51.0 ], [ 7605.0, -4134.0, 51.0 ], [ 7604.0, -4134.0, 51.0 ], [ 7604.0, -4133.0, 51.0 ], [ 7603.0, -4133.0, 51.0 ], [ 7603.0, -4131.0, 51.0 ], [ 7602.0, -4131.0, 51.0 ], [ 7602.0, -4130.0, 51.0 ], [ 7601.0, -4130.0, 51.0 ], [ 7601.0, -4129.0, 51.0 ], [ 7600.0, -4129.0, 51.0 ], [ 7600.0, -4127.0, 51.0 ], [ 7599.0, -4127.0, 51.0 ], [ 7599.0, -4126.0, 51.0 ], [ 7598.0, -4126.0, 51.0 ], [ 7598.0, -4124.0, 51.0 ], [ 7597.0, -4124.0, 51.0 ], [ 7597.0, -4122.0, 51.0 ], [ 7596.0, -4122.0, 51.0 ], [ 7596.0, -4121.0, 51.0 ], [ 7595.0, -4121.0, 51.0 ], [ 7595.0, -4119.0, 51.0 ], [ 7594.0, -4119.0, 51.0 ], [ 7594.0, -4117.0, 51.0 ], [ 7593.0, -4117.0, 51.0 ], [ 7593.0, -4115.0, 51.0 ], [ 7592.0, -4115.0, 51.0 ], [ 7592.0, -4112.0, 51.0 ], [ 7591.0, -4112.0, 51.0 ], [ 7591.0, -4110.0, 51.0 ], [ 7590.0, -4110.0, 51.0 ], [ 7590.0, -4107.0, 51.0 ], [ 7589.0, -4107.0, 51.0 ], [ 7589.0, -4104.0, 51.0 ], [ 7588.0, -4104.0, 51.0 ], [ 7588.0, -4101.0, 51.0 ], [ 7587.0, -4101.0, 51.0 ], [ 7587.0, -4096.0, 51.0 ], [ 7586.0, -4096.0, 51.0 ], [ 7586.0, -4091.0, 51.0 ], [ 7585.0, -4091.0, 51.0 ], [ 7585.0, -3924.0, 51.0 ] ]
    }
  } ]
}